#cP2006 10 27  0  0  0.00000000      96 ORBIT IGb00 HLM  IGS
## 1398 432000.00000000   900.00000000 54035 0.0000000000000
+   30   G01G02G03G04G05G06G07G08G09G10G11G13G14G15G16G17G18
+        G19G20G21G22G23G24G25G26G27G28G29G30G31  0  0  0  0
+          0  0  0  0  0  0  0  0  0  0  0  0  0  0  0  0  0
+          0  0  0  0  0  0  0  0  0  0  0  0  0  0  0  0  0
+          0  0  0  0  0  0  0  0  0  0  0  0  0  0  0  0  0
++         3  3  3  3  3  3  3  3  3  3  3  3  3  3  3  4  4
++         3  3  3  3  3  3  3  3  3  4  4  3  4  0  0  0  0
++         0  0  0  0  0  0  0  0  0  0  0  0  0  0  0  0  0
++         0  0  0  0  0  0  0  0  0  0  0  0  0  0  0  0  0
++         0  0  0  0  0  0  0  0  0  0  0  0  0  0  0  0  0
%c G  cc GPS ccc cccc cccc cccc cccc ccccc ccccc ccccc ccccc
%c cc cc ccc ccc cccc cccc cccc cccc ccccc ccccc ccccc ccccc
%f  1.2500000  1.025000000  0.00000000000  0.000000000000000
%f  0.0000000  0.000000000  0.00000000000  0.000000000000000
%i    0    0    0    0      0      0      0      0         0
%i    0    0    0    0      0      0      0      0         0
/* FINAL ORBIT COMBINATION FROM WEIGHTED AVERAGE OF:        
/* cod emr esa gfz jpl mit ngs sio                          
/* REFERENCED TO IGS TIME (IGST) AND TO WEIGHTED MEAN POLE: 
/* CLK ANT Z-OFFSET (M): II/IIA 1.023; IIR 0.000            
*  2006 10 27  3 45  0.00000000
PG01 -14505.540515  18176.866247 -12567.493794     85.070851  8 10 10 188       
PG02  20771.334851 -12868.222184   9879.837879     48.733063 10  8 12 143       
PG03 -11306.115666  21635.625260   9873.038459    341.256039  9  9 10 144       
PG04  26219.009778  -4978.132301  -1982.587083    329.126712  8 10  8 141       
PG05  -8961.610973 -21029.201474 -13883.008633    364.602120  9  6  6 135       
PG06  -9646.695870 -17128.922132  18023.097515    569.900071  5 10  8 137       
PG07 -16515.028277   6615.857100  20080.085632    507.058795  6  7  6 152       
PG08  24608.300938   1769.208439  10251.614672    -84.342719  6 10  7 133       
PG09   2912.001631 -16347.143823 -21256.085450     42.019070 10 10  7 162       
PG10   8670.929630 -12402.892621  21705.731503     91.801064 10  9  5 142       
PG11   1349.325667  17130.830791 -20290.243051    357.085183 10 11  6 152       
PG13   8452.010460  15827.175528  19507.612615    107.034505  9  9  9 152       
PG14 -15408.871923   2397.595019 -21411.435258     -2.527079  8 11  8 147       
PG15 -25213.131420  -1629.732677   8737.753780     16.637023  8  8 11 148       
PG16 -11556.009305   9930.036644  21834.034853     85.914232 11  5  8 132       
PG17  15904.179649  -1919.416331 -21174.860792     91.627753  7 14  9 156       
PG18 -19699.878957 -17631.866926  -3855.199084   -251.639277 10 11 11 129       
PG19  -8055.979934  25248.030779   -756.014400     28.193540 11 11  9 142       
PG20  11291.613667  21665.313674 -10545.367908    -21.929979  7  9  9 152       
PG21 -20736.039267  -6918.732446  15542.344243     58.887321 10 11 10 130       
PG22 -20670.767239  -7285.640655 -14856.633397    144.906850 10  9 11 137       
PG23   1559.248614  23826.578488  11340.580280    139.358021 10  9 11 149       
PG24  25647.118970  -7188.259691   2561.488011     47.389018  9 10  9 129       
PG25 -23792.661023  11513.821325   3737.516198    393.027333 10  9 10 143       
PG26   7456.744985 -25161.321957   -352.594170   -310.180043 11  9  7 137       
PG27  18105.156995   7716.190208  18590.413419     74.899335  6  9  8 149       
PG28  21388.005768  10827.371725 -11509.581352     15.656832 13 13  9 139       
PG29   9741.406091 -24095.197057   4813.009209    125.316684 15 11 11 185       
PG30 -17844.975495 -19590.742553  -2847.963338     14.499900  9  7  7 135       
PG31 -25105.163882   8447.469012   2397.540168    -62.274113 13 12 12  93       
*  2006 10 27  4  0  0.00000000
PG01 -14207.785548  16600.688326 -14850.731844     85.071835  7 10 10 191       
PG02  21829.780444 -12887.720350   7272.271003     48.736296 10  9 12 138       
PG03 -11447.293162  20293.855800  12258.985790    341.289221  9  9 10 146       
PG04  25925.872699  -4625.995669  -4757.759321    329.131059  8  9  8 144       
PG05  -7523.470471 -20156.027657 -15903.176052    364.601790  9  6  6 137       
PG06  -9069.193776 -18995.488910  16352.528306    569.890838  6 11  8 136       
PG07 -16210.308737   4349.273500  20936.753225    507.052986  6  7  5 151       
PG08  23370.805292   2243.432128  12689.218989    -84.343341  6 10  7 127       
PG09   5084.163009 -16995.339789 -20268.501380     42.020196 10 10  7 155       
PG10  10472.282996 -10651.754663  21867.630973     91.802042 10  8  5 142       
PG11   -777.604579  18000.549640 -19525.396292    357.086659 10 11  6 152       
PG13   7807.532615  17882.125451  17949.107141    107.037725  9  8 10 149       
PG14 -14828.756295    -25.877146 -21952.982962     -2.526336  8 10  8 152       
PG15 -24136.738310  -2084.254565  11239.755731     16.684307  8  9 11 148       
PG16 -13314.000318   8202.000074  21558.041947     85.917552 11  5  8 134       
PG17  15374.033613    473.498940 -21652.444590     91.626771  8 14  8 159       
PG18 -19728.134714 -18011.256477  -1046.495536   -251.639627 10 11 11 125       
PG19  -8293.956539  25106.221262   2098.120216     28.196978 11 11  9 149       
PG20  10162.895013  20924.541067 -12935.202898    -21.930071  8  9  9 152       
PG21 -18985.477096  -7546.970447  17341.260263     58.889238 10 11 10 122       
PG22 -21620.419862  -8592.001269 -12672.359562    144.909342 10  9 11 137       
PG23   1075.906425  24911.235436   8781.443690    139.358603  9  9 11 147       
PG24  25807.576947  -6983.302930   -267.457035     47.392622  9 10  9 131       
PG25 -24093.379032  11361.776999    915.840898    393.036713 10  9 10 145       
PG26   7615.677600 -24937.075475   2594.498693   -310.194290 11  9  7 143       
PG27  16183.886994   8522.818186  19978.016126     74.900851  5  8  8 145       
PG28  22098.347842  11820.930452  -9012.556426     15.656087 13 13  9 140       
PG29   9769.548456 -23381.170918   7622.926157    125.362615 14 10 10 192       
PG30 -17319.581153 -19506.422069  -5610.190599     14.501723  9  7  8 131       
PG31 -25266.312241   8228.609258   -450.528811    -62.263560 13 12 12  52       
*  2006 10 27  4 15  0.00000000
PG01 -13946.429520  14768.571784 -16874.296777     85.073944  7 10 10 190       
PG02  22598.720634 -12855.911440   4536.843786     48.739708  9  9 12 138       
PG03 -11628.051177  18701.552613  14428.335872    341.322343  9  9  9 152       
PG04  25361.301440  -4159.455894  -7452.870417    329.135075  8  9  8 147       
PG05  -5872.784059 -19232.762028 -17655.560453    364.601565  9  6  6 152       
PG06  -8610.030508 -20688.075215  14403.540818    569.881253  6 11  8 133       
PG07 -16008.154804   1995.415939  21444.027207    507.047400  6  7  5 149       
PG08  21909.029394   2866.585492  14911.532098    -84.345440  6 10  7 139       
PG09   7104.498889 -17711.422184 -18946.487848     42.022562 10 10  7 165       
PG10  12360.113355  -9003.771115  21649.954891     91.802208 10  8  6 146       
PG11  -2777.601943  18909.091522 -18424.871819    357.088379 10 11  7 137       
PG13   7321.092013  19778.572400  16080.051714    107.040866  9  7 10 150       
PG14 -14377.992853  -2516.767961 -22113.885472     -2.525239  8 10  8 150       
PG15 -22823.419457  -2669.455724  13551.453654     16.731152  8  9 11 134       
PG16 -15120.402469   6603.349887  20914.105822     85.921169 10  7  8 127       
PG17  14963.354953   2922.136000 -21757.439472     91.625883  9 14  7 153       
PG18 -19543.486614 -18174.028212   1779.883904   -251.640357 10 11 11 134       
PG19  -8462.445250  24664.702188   4916.003376     28.200155 11 11  9 150       
PG20   8799.643116  20079.296693 -15103.834458    -21.929992  8 10  9 141       
PG21 -17090.245773  -8320.664166  18849.590879     58.890239 10 10 10 140       
PG22 -22444.371219  -9669.584546 -10268.313474    144.911876 10  9 12 129       
PG23    703.090976  25723.976766   6069.026394    139.359170  9  9 11 144       
PG24  25675.665463  -6692.305160  -3091.866516     47.394633  9  9  9 138       
PG25 -24114.997607  11086.074149  -1921.397227    393.046051 10  9 10 145       
PG26   7721.375612 -24389.992631   5495.050200   -310.208706 11  9  8 145       
PG27  14185.588295   9485.264522  21041.451251     74.902723  5  7  8 143       
PG28  22641.302781  12580.956653  -6361.641112     15.655036 13 13  9 127       
PG29   9783.350640 -22363.066565  10300.209415    125.408182 14 10 10 187       
PG30 -16552.512474 -19259.409254  -8277.199952     14.503171  9  7  8 139       
PG31 -25137.139967   7905.718938  -3290.841290    -62.252712 13 12 12  80       
EOF
